NORAD_CAT_ID,OBJECT_NAME,OBJECT_TYPE,EPOCH,MEAN_MOTION,ECCENTRICITY,INCLINATION,RA_OF_ASC_NODE,ARG_OF_PERICENTER,MEAN_ANOMALY,BSTAR,MEAN_MOTION_DOT,MEAN_MOTION_DDOT,TLE_LINE0,TLE_LINE1,TLE_LINE2,SEMIMAJOR_AXIS,PERIOD,APOGEE,PERIGEE,DECAYED
56451.0,STARLINK-5985,PAYLOAD,2024-06-07 09:45:58,14.98329068,0.00029,70.0027,319.0078,274.3899,85.6929,0.00010732,1.188e-05,0.0,0 STARLINK-5985,1 56451U 23064D   24159.40692939  .00001188  00000-0  10732-3 0  9993,2 56451  70.0027 319.0078 0002900 274.3899  85.6929 14.98329068 59698,6950.196,96.107,574.076,570.045,0.0
56451.0,STARLINK-5985,PAYLOAD,2024-06-07 20:58:54,14.98331638,0.0002789,70.0018,317.8294,273.6932,86.3908,0.00015051,1.703e-05,0.0,0 STARLINK-5985,1 56451U 23064D   24159.87424715  .00001703  00000-0  15051-3 0  9991,2 56451  70.0018 317.8294 0002789 273.6932  86.3908 14.98331638 59409,6950.188,96.107,573.991,570.114,0.0
56451.0,STARLINK-5985,PAYLOAD,2024-06-08 11:24:07,14.98339186,0.0003009,70.0012,316.3145,273.1116,86.9699,5.8316e-05,6.03e-06,0.0,0 STARLINK-5985,1 56451U 23064D   24160.47508272  .00000603  00000-0  58316-4 0  9990,2 56451  70.0012 316.3145 0003009 273.1116  86.9699 14.98339186 59495,6950.164,96.106,574.121,569.938,0.0
56451.0,STARLINK-5985,PAYLOAD,2024-06-08 21:00:54,14.98345638,0.0002801,70.0014,315.3051,270.5946,89.4892,0.00010546,1.166e-05,0.0,0 STARLINK-5985,1 56451U 23064D   24160.87563460  .00001166  00000-0  10546-3 0  9991,2 56451  70.0014 315.3051 0002801 270.5946  89.4892 14.98345638 59912,6950.145,96.106,573.956,570.063,0.0
56451.0,STARLINK-5985,PAYLOAD,2024-06-09 03:25:27,14.98335156,0.0003616,69.9989,314.6289,272.0625,88.012,5.2616e-05,5.35e-06,0.0,0 STARLINK-5985,1 56451U 23064D   24161.14268059  .00000535  00000-0  52616-4 0  9992,2 56451  69.9989 314.6289 0003616 272.0625  88.0120 14.98335156 59958,6950.177,96.107,574.555,569.529,0.0
56451.0,STARLINK-5985,PAYLOAD,2024-06-09 11:26:08,14.98325089,0.000324,70.0035,313.7926,267.0002,93.0787,-2.3697e-05,-3.76e-06,0.0,0 STARLINK-5985,1 56451U 23064D   24161.47648962 -.00000376  00000-0 -23697-4 0  9995,2 56451  70.0035 313.7926 0003240 267.0002  93.0787 14.98325089 60004,6950.208,96.107,574.325,569.821,0.0
56451.0,STARLINK-5985,PAYLOAD,2024-06-09 16:14:33,14.9832248,0.0002933,70.0012,313.2847,263.7602,96.3223,-6.5524e-05,-8.75e-06,0.0,0 STARLINK-5985,1 56451U 23064D   24161.67677318 -.00000875  00000-0 -65524-4 0  9993,2 56451  70.0012 313.2847 0002933 263.7602  96.3223 14.98322480 59677,6950.216,96.107,574.12,570.043,0.0
56451.0,STARLINK-5985,PAYLOAD,2024-06-10 13:04:17,14.9833444,0.0002999,70.0006,311.0958,266.453,93.6286,-8.7429e-06,-1.97e-06,0.0,0 STARLINK-5985,1 56451U 23064D   24162.54464598 -.00000197  00000-0 -87429-5 0  9990,2 56451  70.0006 311.0958 0002999 266.4530  93.6286 14.98334440 60165,6950.179,96.107,574.129,569.96,0.0
56451.0,STARLINK-5985,PAYLOAD,2024-06-10 14:40:25,14.98334671,0.0003077,70.0003,310.9275,266.8631,93.2176,-1.953e-06,-1.16e-06,0.0,0 STARLINK-5985,1 56451U 23064D   24162.61140574 -.00000116  00000-0 -19530-5 0  9992,2 56451  70.0003 310.9275 0003077 266.8631  93.2176 14.98334671 59816,6950.178,96.107,574.182,569.905,0.0
56451.0,STARLINK-5985,PAYLOAD,2024-06-10 19:28:49,14.98339416,0.0002983,70.0003,310.4224,266.476,93.6058,7.1016e-05,7.55e-06,0.0,0 STARLINK-5985,1 56451U 23064D   24162.81168149  .00000755  00000-0  71016-4 0  9995,2 56451  70.0003 310.4224 0002983 266.4760  93.6058 14.98339416 59847,6950.164,96.106,574.102,569.956,0.0
56451.0,STARLINK-5985,PAYLOAD,2024-06-11 13:06:18,14.98331984,0.0002931,69.9999,308.5697,266.4782,93.6041,0.00013836,1.558e-05,0.0,0 STARLINK-5985,1 56451U 23064D   24163.54604562  .00001558  00000-0  13836-3 0  9997,2 56451  69.9999 308.5697 0002931 266.4782  93.6041 14.98331984 59953,6950.187,96.107,574.089,570.015,0.0
56451.0,STARLINK-5985,PAYLOAD,2024-06-12 03:31:31,14.98332267,0.0002701,70.0024,307.0547,269.2828,90.8022,4.1889e-05,4.07e-06,0.0,0 STARLINK-5985,1 56451U 23064D   24164.14688733  .00000407  00000-0  41889-4 0  9998,2 56451  70.0024 307.0547 0002701 269.2828  90.8022 14.98332267 60405,6950.186,96.107,573.928,570.174,0.0
56451.0,STARLINK-5985,PAYLOAD,2024-06-12 19:32:52,14.98326674,0.0002855,70.0006,305.3732,267.037,93.0463,-5.6191e-07,-1e-06,0.0,0 STARLINK-5985,1 56451U 23064D   24164.81449275 -.00000100  00000-0 -56191-6 0  9994,2 56451  70.0006 305.3732 0002855 267.0370  93.0463 14.98326674 60500,6950.203,96.107,574.052,570.084,0.0
56451.0,STARLINK-5985,PAYLOAD,2024-06-13 13:10:20,14.98335188,0.0002909,70.0005,303.5217,271.3389,88.7436,0.00011813,1.317e-05,0.0,0 STARLINK-5985,1 56451U 23064D   24165.54884404  .00001317  00000-0  11813-3 0  9990,2 56451  70.0005 303.5217 0002909 271.3389  88.7436 14.98335188 60618,6950.177,96.107,574.064,570.02,0.0
56451.0,STARLINK-5985,PAYLOAD,2024-06-13 19:34:52,14.98338851,0.0002994,70.0004,302.8478,273.4141,86.6676,0.00011117,1.234e-05,0.0,0 STARLINK-5985,1 56451U 23064D   24165.81588083  .00001234  00000-0  11117-3 0  9999,2 56451  70.0004 302.8478 0002994 273.4141  86.6676 14.98338851 60298,6950.166,96.106,574.111,569.95,0.0
56451.0,STARLINK-5985,PAYLOAD,2024-06-14 14:48:29,14.98323112,0.0002971,70.0007,300.828,274.3044,85.7775,6.9445e-05,7.36e-06,0.0,0 STARLINK-5985,1 56451U 23064D   24166.61701258  .00000736  00000-0  69445-4 0  9993,2 56451  70.0007 300.8280 0002971 274.3044  85.7775 14.98323112 60415,6950.214,96.107,574.144,570.014,0.0
56451.0,STARLINK-5985,PAYLOAD,2024-06-14 19:36:53,14.98327905,0.000289,70.0008,300.3246,267.861,92.2218,0.0001164,1.296e-05,0.0,0 STARLINK-5985,1 56451U 23064D   24166.81728859  .00001296  00000-0  11640-3 0  9996,2 56451  70.0008 300.3246 0002890 267.8610  92.2218 14.98327905 60441,6950.199,96.107,574.073,570.056,0.0
56451.0,STARLINK-5985,PAYLOAD,2024-06-15 14:50:29,14.98338439,0.0002899,70.0008,298.3041,265.5001,94.5827,6.5566e-05,6.9e-06,0.0,0 STARLINK-5985,1 56451U 23064D   24167.61840127  .00000690  00000-0  65566-4 0  9992,2 56451  70.0008 298.3041 0002899 265.5001  94.5827 14.98338439 60566,6950.167,96.106,574.047,570.017,0.0
56451.0,STARLINK-5985,PAYLOAD,2024-06-15 18:02:45,14.98341164,0.0002862,70.0008,297.9674,265.5578,94.5254,9.7e-05,1.065e-05,0.0,0 STARLINK-5985,1 56451U 23064D   24167.75191807  .00001065  00000-0  97000-4 0  9996,2 56451  70.0008 297.9674 0002862 265.5578  94.5254 14.98341164 60587,6950.158,96.106,574.013,570.034,0.0
56451.0,STARLINK-5985,PAYLOAD,2024-06-16 14:52:30,14.98333664,0.0003086,70.0,295.7781,266.8367,93.2439,9.1012e-05,9.93e-06,0.0,0 STARLINK-5985,1 56451U 23064D   24168.61980109  .00000993  00000-0  91012-4 0  9999,2 56451  70.0000 295.7781 0003086 266.8367  93.2439 14.98333664 60715,6950.182,96.107,574.191,569.902,0.0
56451.0,STARLINK-5985,PAYLOAD,2024-06-16 18:04:47,14.98332361,0.0003017,70.0003,295.4423,266.4179,93.6635,8.8437e-05,9.62e-06,0.0,0 STARLINK-5985,1 56451U 23064D   24168.75332192  .00000962  00000-0  88437-4 0  9990,2 56451  70.0003 295.4423 0003017 266.4179  93.6635 14.98332361 60736,6950.186,96.107,574.147,569.954,0.0
56451.0,STARLINK-5985,PAYLOAD,2024-06-17 18:06:48,14.98330725,0.0002917,70.0006,292.9178,263.7144,96.3682,-1.6718e-05,-2.92e-06,0.0,0 STARLINK-5985,1 56451U 23064D   24169.75472431 -.00000292  00000-0 -16718-4 0  9993,2 56451  70.0006 292.9178 0002917 263.7144  96.3682 14.98330725 61249,6950.191,96.107,574.083,570.028,0.0
56451.0,STARLINK-5985,PAYLOAD,2024-06-18 14:56:33,14.98327899,0.0003078,69.9998,290.7281,267.3963,92.6844,1.5466e-06,-7.5e-07,0.0,0 STARLINK-5985,1 56451U 23064D   24170.62260583 -.00000075  00000-0  15466-5 0  9992,2 56451  69.9998 290.7281 0003078 267.3963  92.6844 14.98327899 61017,6950.199,96.107,574.204,569.925,0.0
56451.0,STARLINK-5985,PAYLOAD,2024-06-18 18:08:49,14.9832637,0.0003097,69.9997,290.3915,267.3337,92.7467,-9.2253e-06,-2.03e-06,0.0,0 STARLINK-5985,1 56451U 23064D   24170.75612732 -.00000203  00000-0 -92253-5 0  9996,2 56451  69.9997 290.3915 0003097 267.3337  92.7467 14.98326370 61398,6950.204,96.107,574.222,569.917,0.0
56451.0,STARLINK-5985,PAYLOAD,2024-06-19 14:58:33,14.98331096,0.0003117,69.9997,288.2035,268.8511,91.2291,9.6377e-05,1.057e-05,0.0,0 STARLINK-5985,1 56451U 23064D   24171.62400275  .00001057  00000-0  96377-4 0  9996,2 56451  69.9997 288.2035 0003117 268.8511  91.2291 14.98331096 61165,6950.19,96.107,574.221,569.888,0.0
56451.0,STARLINK-5985,PAYLOAD,2024-06-19 18:10:49,14.98352467,0.0003044,70.0001,287.867,273.057,87.0241,-0.00028008,-3.435e-05,0.0,0 STARLINK-5985,1 56451U 23064D   24171.75751691 -.00003435  00000-0 -28008-3 0  9990,2 56451  70.0001 287.8670 0003044 273.0570  87.0241 14.98352467 61541,6950.123,96.106,574.104,569.873,0.0
56451.0,STARLINK-5985,PAYLOAD,2024-06-20 11:48:18,14.98330132,0.0003175,70.0001,286.0155,268.8072,91.2724,8.7264e-05,9.48e-06,0.0,0 STARLINK-5985,1 56451U 23064D   24172.49188365  .00000948  00000-0  87264-4 0  9998,2 56451  70.0001 286.0155 0003175 268.8072  91.2724 14.98330132 61294,6950.192,96.107,574.264,569.851,0.0
56451.0,STARLINK-5985,PAYLOAD,2024-06-20 16:36:42,14.98332733,0.0003084,70.0003,285.5112,266.5015,93.5791,0.00012456,1.394e-05,0.0,0 STARLINK-5985,1 56451U 23064D   24172.69216093  .00001394  00000-0  12456-3 0  9996,2 56451  70.0003 285.5112 0003084 266.5015  93.5791 14.98332733 61685,6950.184,96.107,574.193,569.906,0.0
56451.0,STARLINK-5985,PAYLOAD,2024-06-21 11:50:19,14.98332511,0.0003029,70.0005,283.4916,266.4686,93.6127,4.302e-05,4.2e-06,0.0,0 STARLINK-5985,1 56451U 23064D   24173.49328222  .00000420  00000-0  43020-4 0  9994,2 56451  70.0005 283.4916 0003029 266.4686  93.6127 14.98332511 61440,6950.185,96.107,574.155,569.945,0.0
56451.0,STARLINK-5985,PAYLOAD,2024-06-21 16:38:43,14.98332661,0.0003029,70.0005,282.9867,266.4233,93.658,4.1674e-05,4.04e-06,0.0,0 STARLINK-5985,1 56451U 23064D   24173.69356184  .00000404  00000-0  41674-4 0  9999,2 56451  70.0005 282.9867 0003029 266.4233  93.6580 14.98332661 61839,6950.185,96.107,574.155,569.944,0.0
